{
  "norad_id": 62021,
  "name": "STARLINK-32520",
  "history": [
    {
      "epoch": "2026-04-14T10:31:07.989024Z",
      "apogee_km": 475.6775422326318,
      "perigee_km": 474.72122767347446,
      "latitude_deg": -4.926732929071535e-06,
      "longitude_deg": 1.9929004414233775,
      "height_km": 476.24184768127435,
      "semi_major_axis_km": 6853.336384953052,
      "eccentricity": 6.977e-05,
      "inclination_deg": 53.1622,
      "raan_deg": 2.3909,
      "arg_perigee_deg": 107.4451,
      "mean_anomaly_deg": 252.6626,
      "mean_motion_rev_day": 15.30205253
    },
    {
      "epoch": "2026-04-15T10:01:56.186688Z",
      "apogee_km": 476.4072657995139,
      "perigee_km": 474.04093727837517,
      "latitude_deg": 4.765171462188562e-05,
      "longitude_deg": 3.77345715295977,
      "height_km": 476.2988972280996,
      "semi_major_axis_km": 6853.361101538944,
      "eccentricity": 0.00017264,
      "inclination_deg": 53.1629,
      "raan_deg": 357.8379,
      "arg_perigee_deg": 98.6053,
      "mean_anomaly_deg": 261.5144,
      "mean_motion_rev_day": 15.30196975
    },
    {
      "epoch": "2026-04-16T09:32:43.948032Z",
      "apogee_km": 476.1919901820356,
      "perigee_km": 474.24837808461507,
      "latitude_deg": 3.537124299530861e-05,
      "longitude_deg": 5.559688759901914,
      "height_km": 476.20670702263175,
      "semi_major_axis_km": 6853.357184133325,
      "eccentricity": 0.0001418,
      "inclination_deg": 53.1603,
      "raan_deg": 353.2888,
      "arg_perigee_deg": 95.2321,
      "mean_anomaly_deg": 264.8842,
      "mean_motion_rev_day": 15.30198287
    },
    {
      "epoch": "2026-04-17T21:35:57.485760Z",
      "apogee_km": 476.03591520424015,
      "perigee_km": 474.35191473181385,
      "latitude_deg": -3.622742687667571e-05,
      "longitude_deg": 176.29575506646032,
      "height_km": 476.11641571242103,
      "semi_major_axis_km": 6853.330914968026,
      "eccentricity": 0.00012286,
      "inclination_deg": 53.1594,
      "raan_deg": 346.312,
      "arg_perigee_deg": 91.6623,
      "mean_anomaly_deg": 268.4518,
      "mean_motion_rev_day": 15.30207085
    },
    {
      "epoch": "2026-04-18T08:34:19.788672Z",
      "apogee_km": 475.9640680991779,
      "perigee_km": 474.45112374618293,
      "latitude_deg": -1.4714425125247515e-05,
      "longitude_deg": 9.128702981181908,
      "height_km": 476.0977823515367,
      "semi_major_axis_km": 6853.34459592268,
      "eccentricity": 0.00011038,
      "inclination_deg": 53.1588,
      "raan_deg": 344.1885,
      "arg_perigee_deg": 89.3949,
      "mean_anomaly_deg": 270.7178,
      "mean_motion_rev_day": 15.30202503
    },
    {
      "epoch": "2026-04-19T08:05:07.865376Z",
      "apogee_km": 476.8230796140524,
      "perigee_km": 473.57500952908777,
      "latitude_deg": -1.1355625876313738e-05,
      "longitude_deg": 10.910626292992585,
      "height_km": 476.1462277444954,
      "semi_major_axis_km": 6853.33604457157,
      "eccentricity": 0.00023697,
      "inclination_deg": 53.1592,
      "raan_deg": 339.6364,
      "arg_perigee_deg": 91.7918,
      "mean_anomaly_deg": 268.3354,
      "mean_motion_rev_day": 15.30205367
    },
    {
      "epoch": "2026-04-19T22:11:36.653856Z",
      "apogee_km": 476.0302642480974,
      "perigee_km": 474.4361703355562,
      "latitude_deg": -3.807379026907909e-05,
      "longitude_deg": 155.9814588060189,
      "height_km": 476.6400708137431,
      "semi_major_axis_km": 6853.3702172918265,
      "eccentricity": 0.0001163,
      "inclination_deg": 53.1589,
      "raan_deg": 336.9066,
      "arg_perigee_deg": 129.632,
      "mean_anomaly_deg": 230.4783,
      "mean_motion_rev_day": 15.30193922
    },
    {
      "epoch": "2026-04-21T21:13:12.269856Z",
      "apogee_km": 475.9095376088044,
      "perigee_km": 474.44566960947486,
      "latitude_deg": -1.8756775134688926e-05,
      "longitude_deg": 159.55155638406052,
      "height_km": 476.25908467874046,
      "semi_major_axis_km": 6853.314603609139,
      "eccentricity": 0.0001068,
      "inclination_deg": 53.1581,
      "raan_deg": 327.8064,
      "arg_perigee_deg": 104.502,
      "mean_anomaly_deg": 255.6099,
      "mean_motion_rev_day": 15.30212548
    },
    {
      "epoch": "2026-04-22T17:35:54.096000Z",
      "apogee_km": 475.9188607084743,
      "perigee_km": 474.52488751347937,
      "latitude_deg": -2.2370516716903275e-06,
      "longitude_deg": -150.90651542059402,
      "height_km": 475.98583897868366,
      "semi_major_axis_km": 6853.358874110976,
      "eccentricity": 0.0001017,
      "inclination_deg": 53.1593,
      "raan_deg": 323.8595,
      "arg_perigee_deg": 78.8816,
      "mean_anomaly_deg": 281.2299,
      "mean_motion_rev_day": 15.30197721
    }
  ]
}